NORAD_CAT_ID,OBJECT_NAME,OBJECT_TYPE,EPOCH,MEAN_MOTION,ECCENTRICITY,INCLINATION,RA_OF_ASC_NODE,ARG_OF_PERICENTER,MEAN_ANOMALY,BSTAR,MEAN_MOTION_DOT,MEAN_MOTION_DDOT,TLE_LINE0,TLE_LINE1,TLE_LINE2,SEMIMAJOR_AXIS,PERIOD,APOGEE,PERIGEE,DECAYED
51152.0,STARLINK-3364,PAYLOAD,2022-11-22 16:27:08,15.08825368,0.0002535,53.2183,309.616,33.176,326.939,-3.1741e-05,-7.93e-06,0.0,0 STARLINK-3364,1 51152U 22005BA  22326.68551032 -.00000793  00000-0 -31741-4 0  9999,2 51152  53.2183 309.6160 0002535  33.1760 326.9390 15.08825368 46983,6917.925,95.438,541.544,538.036,0.0
51152.0,STARLINK-3364,PAYLOAD,2022-11-23 05:10:13,15.08831245,0.0002589,53.2179,307.2361,33.2896,326.8259,2.2639e-05,7.2e-07,0.0,0 STARLINK-3364,1 51152U 22005BA  22327.21542866  .00000072  00000-0  22639-4 0  9998,2 51152  53.2179 307.2361 0002589  33.2896 326.8259 15.08831245 48172,6917.906999999997,95.438,541.563,537.981,0.0
51152.0,STARLINK-3364,PAYLOAD,2022-11-23 08:20:59,15.08833718,0.0002624,53.2177,306.6414,34.2958,325.8204,4.42e-05,4.15e-06,0.0,0 STARLINK-3364,1 51152U 22005BA  22327.34790758  .00000415  00000-0  44200-4 0  9996,2 51152  53.2177 306.6414 0002624  34.2958 325.8204 15.08833718 47087,6917.9,95.438,541.58,537.9490000000002,0.0
51152.0,STARLINK-3364,PAYLOAD,2022-11-24 05:00:57,15.08886079,0.0003292,53.2179,302.7756,41.1221,319.0018,-0.00045372,-7.512e-05,0.0,0 STARLINK-3364,1 51152U 22005BA  22328.20900217 -.00007512  00000-0 -45372-3 0  9992,2 51152  53.2179 302.7756 0003292  41.1221 319.0018 15.08886079 48321,6917.74,95.435,541.882,537.327,0.0
51152.0,STARLINK-3364,PAYLOAD,2022-11-24 08:11:44,15.08861832,0.0002828,53.2178,302.1807,35.3382,324.7797,-1.1966e-05,-4.79e-06,0.0,0 STARLINK-3364,1 51152U 22005BA  22328.34149090 -.00000479  00000-0 -11966-4 0  9999,2 51152  53.2178 302.1807 0002828  35.3382 324.7797 15.08861832 48347,6917.814,95.436,541.635,537.722,0.0
51152.0,STARLINK-3364,PAYLOAD,2022-11-25 04:51:46,15.08844155,0.0002728,53.2183,298.3132,43.9431,316.1778,0.00014758,2.061e-05,0.0,0 STARLINK-3364,1 51152U 22005BA  22329.20262058  .00002061  00000-0  14758-3 0  9993,2 51152  53.2183 298.3132 0002728  43.9431 316.1778 15.08844155 48476,6917.868,95.437,541.62,537.845,0.0
51152.0,STARLINK-3364,PAYLOAD,2022-11-25 08:02:33,15.08833427,0.0002725,53.2177,297.7206,37.2073,322.9108,2.044e-05,3.7e-07,0.0,0 STARLINK-3364,1 51152U 22005BA  22329.33511095  .00000037  00000-0  20440-4 0  9992,2 51152  53.2177 297.7206 0002725  37.2073 322.9108 15.08833427 48493,6917.9,95.438,541.651,537.88,0.0
51152.0,STARLINK-3364,PAYLOAD,2022-11-26 01:31:47,15.08847052,0.0002738,53.2176,294.4495,37.8355,322.2829,3.5254e-05,2.73e-06,0.0,0 STARLINK-3364,1 51152U 22005BA  22330.06374239  .00000273  00000-0  35254-4 0  9992,2 51152  53.2176 294.4495 0002738  37.8355 322.2829 15.08847052 48604,6917.859,95.437,541.618,537.83,0.0
51152.0,STARLINK-3364,PAYLOAD,2022-11-26 07:53:19,15.08855581,0.0002775,53.2174,293.2599,39.2174,320.9019,0.00011405,1.528e-05,0.0,0 STARLINK-3364,1 51152U 22005BA  22330.32869407  .00001528  00000-0  11405-3 0  9992,2 51152  53.2174 293.2599 0002775  39.2174 320.9019 15.08855581 48646,6917.833000000001,95.437,541.617,537.778,0.0
51152.0,STARLINK-3364,PAYLOAD,2022-11-26 20:36:23,15.088587300000002,0.0002798,53.2167,290.8815,41.1659,318.9544,0.00026926,4.002e-05,0.0,0 STARLINK-3364,1 51152U 22005BA  22330.85860956  .00004002  00000-0  26926-3 0  9994,2 51152  53.2167 290.8815 0002798  41.1659 318.9544 15.08858730 47612,6917.823,95.436,541.624,537.753,0.0
51152.0,STARLINK-3364,PAYLOAD,2022-11-27 07:44:06,15.0884658,0.0002622,53.2191,288.7996,42.8851,317.2345,-2.5313e-06,-3.29e-06,0.0,0 STARLINK-3364,1 51152U 22005BA  22331.32229199 -.00000329  00000-0 -25313-5 0  9996,2 51152  53.2191 288.7996 0002622  42.8851 317.2345 15.08846580 48794,6917.86,95.437,541.539,537.911,0.0
51152.0,STARLINK-3364,PAYLOAD,2022-11-28 05:59:30,15.08838922,0.0003013,53.218,284.6358,38.774,321.3468,-9.8238e-05,-1.852e-05,0.0,0 STARLINK-3364,1 51152U 22005BA  22332.24965931 -.00001852  00000-0 -98238-4 0  9996,2 51152  53.2180 284.6358 0003013  38.7740 321.3468 15.08838922 48934,6917.884,95.438,541.8330000000002,537.664,0.0
51152.0,STARLINK-3364,PAYLOAD,2022-11-29 05:50:17,15.08842147,0.0002877,53.2183,280.1749,46.1469,313.9761,1.3315e-05,-7.7e-07,0.0,0 STARLINK-3364,1 51152U 22005BA  22333.24325922 -.00000077  00000-0  13315-4 0  9997,2 51152  53.2183 280.1749 0002877  46.1469 313.9761 15.08842147 47970,6917.874,95.437,541.729,537.749,0.0
51152.0,STARLINK-3364,PAYLOAD,2022-11-29 20:08:45,15.08836797,0.0002908,53.2176,277.5028,33.5544,326.5632,0.0001709,2.432e-05,0.0,0 STARLINK-3364,1 51152U 22005BA  22333.83942040  .00002432  00000-0  17090-3 0  9997,2 51152  53.2176 277.5028 0002908  33.5544 326.5632 15.08836797 49176,6917.89,95.438,541.7669999999998,537.743,0.0
51152.0,STARLINK-3364,PAYLOAD,2022-11-30 05:41:05,15.08832898,0.000252,53.218,275.7146,36.2413,323.875,1.4299000000000008e-05,-6.1e-07,0.0,0 STARLINK-3364,1 51152U 22005BA  22334.23686847 -.00000061  00000-0  14299-4 0  9998,2 51152  53.2180 275.7146 0002520  36.2413 323.8750 15.08832898 49233,6917.901999999999,95.438,541.51,538.024,0.0
51152.0,STARLINK-3364,PAYLOAD,2022-11-30 19:59:33,15.08838592,0.0002689,53.2185,273.0385,37.7227,322.3954,8.3745e-05,1.045e-05,0.0,0 STARLINK-3364,1 51152U 22005BA  22334.83302471  .00001045  00000-0  83745-4 0  9996,2 51152  53.2185 273.0385 0002689  37.7227 322.3954 15.08838592 48213,6917.885,95.438,541.61,537.889,0.0
51152.0,STARLINK-3364,PAYLOAD,2022-12-01 02:21:05,15.08847095,0.0002695,53.2182,271.8491,38.1193,321.9989,0.00015681,2.209e-05,0.0,0 STARLINK-3364,1 51152U 22005BA  22335.09797765  .00002209  00000-0  15681-3 0  9995,2 51152  53.2182 271.8491 0002695  38.1193 321.9989 15.08847095 49366,6917.859,95.437,541.5880000000002,537.859,0.0
51152.0,STARLINK-3364,PAYLOAD,2022-12-01 05:31:51,15.08846948,0.0002569,53.2183,271.2543,40.0648,320.0533,0.00013623,1.881e-05,0.0,0 STARLINK-3364,1 51152U 22005BA  22335.23045879  .00001881  00000-0  13623-3 0  9992,2 51152  53.2183 271.2543 0002569  40.0648 320.0533 15.08846948 48276,6917.859,95.437,541.501,537.947,0.0
51152.0,STARLINK-3364,PAYLOAD,2022-12-02 05:22:38,15.08844404,0.0002812,53.2175,266.7954,35.5167,324.6012,0.00021534,3.141e-05,0.0,0 STARLINK-3364,1 51152U 22005BA  22336.22406147  .00003141  00000-0  21534-3 0  9992,2 51152  53.2175 266.7954 0002812  35.5167 324.6012 15.08844404 49535,6917.8669999999975,95.437,541.677,537.7869999999998,0.0
51152.0,STARLINK-3364,PAYLOAD,2022-12-03 05:13:26,15.088386300000002,0.0002757,53.2179,262.3347,36.6973,323.4208,-4.7831e-05,-1.05e-05,0.0,0 STARLINK-3364,1 51152U 22005BA  22337.21766591 -.00001050  00000-0 -47831-4 0  9992,2 51152  53.2179 262.3347 0002757  36.6973 323.4208 15.08838630 49686,6917.885,95.438,541.6569999999998,537.842,0.0
51152.0,STARLINK-3364,PAYLOAD,2022-12-03 19:31:54,15.08835502,0.0002737,53.2173,259.6587,36.8976,323.2204,-1.7755e-05,-5.71e-06,0.0,0 STARLINK-3364,1 51152U 22005BA  22337.81382714 -.00000571  00000-0 -17755-4 0  9998,2 51152  53.2173 259.6587 0002737  36.8976 323.2204 15.08835502 48664,6917.894,95.438,541.653,537.866,0.0
51152.0,STARLINK-3364,PAYLOAD,2022-12-04 03:28:49,15.08851294,0.0002778,53.2177,258.1719,37.3268,322.7917,-5.4625e-05,-1.158e-05,0.0,0 STARLINK-3364,1 51152U 22005BA  22338.14501844 -.00001158  00000-0 -54625-4 0  9991,2 51152  53.2177 258.1719 0002778  37.3268 322.7917 15.08851294 49824,6917.846,95.437,541.633,537.789,0.0
51152.0,STARLINK-3364,PAYLOAD,2022-12-04 11:25:45,15.0883519,0.0002672,53.2177,256.6855,39.2922,320.8263,6.0013e-05,6.67e-06,0.0,0 STARLINK-3364,1 51152U 22005BA  22338.47622576  .00000667  00000-0  60013-4 0  9993,2 51152  53.2177 256.6855 0002672  39.2922 320.8263 15.08835190 48761,6917.895,95.438,541.609,537.9119999999998,0.0
51152.0,STARLINK-3364,PAYLOAD,2022-12-04 19:22:41,15.08833205,0.0002758,53.2176,255.1975,38.2689,321.8498,0.00015963,2.253e-05,0.0,0 STARLINK-3364,1 51152U 22005BA  22338.80742372  .00002253  00000-0  15963-3 0  9993,2 51152  53.2176 255.1975 0002758  38.2689 321.8498 15.08833205 48813,6917.901,95.438,541.674,537.8580000000002,0.0
51152.0,STARLINK-3364,PAYLOAD,2022-12-05 11:16:32,15.08837322,0.0002761,53.2177,252.225,36.9484,323.1698,0.00010615,1.401e-05,0.0,0 STARLINK-3364,1 51152U 22005BA  22339.46982570  .00001401  00000-0  10615-3 0  9995,2 51152  53.2177 252.2250 0002761  36.9484 323.1698 15.08837322 48912,6917.889,95.438,541.664,537.844,0.0
51152.0,STARLINK-3364,PAYLOAD,2022-12-06 03:10:23,15.088467,0.0002586,53.2166,249.2493,35.4975,324.6189,8.9831e-05,1.142e-05,0.0,0 STARLINK-3364,1 51152U 22005BA  22340.13221761  .00001142  00000-0  89831-4 0  9998,2 51152  53.2166 249.2493 0002586  35.4975 324.6189 15.08846700 50126,6917.86,95.437,541.514,537.936,0.0
51152.0,STARLINK-3364,PAYLOAD,2022-12-06 04:45:46,15.08845258,0.0002668,53.2169,248.9528,35.6178,324.4992,7.256e-05,8.67e-06,0.0,0 STARLINK-3364,1 51152U 22005BA  22340.19845880  .00000867  00000-0  72560-4 0  9992,2 51152  53.2169 248.9528 0002668  35.6178 324.4992 15.08845258 49026,6917.864000000001,95.437,541.575,537.884,0.0
51152.0,STARLINK-3364,PAYLOAD,2022-12-07 03:01:11,15.08825497,0.0002678,53.2166,244.7889,34.2577,325.8587,-0.00016963,-2.986e-05,0.0,0 STARLINK-3364,1 51152U 22005BA  22341.12583298 -.00002986  00000-0 -16963-3 0  9998,2 51152  53.2166 244.7889 0002678  34.2577 325.8587 15.08825497 50273,6917.925,95.438,541.6419999999998,537.937,0.0
51152.0,STARLINK-3364,PAYLOAD,2022-12-07 10:58:08,15.08825837,0.000263,53.2173,243.3023,35.24800000000001,324.8685,3.0938e-06,-2.39e-06,0.0,0 STARLINK-3364,1 51152U 22005BA  22341.45704178 -.00000239  00000-0  30938-5 0  9994,2 51152  53.2173 243.3023 0002630  35.2480 324.8685 15.08825837 49216,6917.924,95.438,541.6080000000002,537.969,0.0
